{"type": "FeatureCollection", "features": [ {"type": "Feature", "properties": {"norad_id": 43262, "name": "GAOFEN-1 04", "group": "resource", "lat": 56.71985735433592, "lon": -122.96292568710146, "alt_km": 634.7785453824563, "timestamp": "2025-12-12T16:50:32.805179+00:00", "meta": {"OBJECT_NAME": "GAOFEN-1 04", "OBJECT_ID": "2018-031D", "EPOCH": "2025-12-12T08:09:28.351872", "MEAN_MOTION": 14.76451296, "ECCENTRICITY": 0.00011003, "INCLINATION": 98.0805, "RA_OF_ASC_NODE": 44.1749, "ARG_OF_PERICENTER": 58.9336, "MEAN_ANOMALY": 301.1981, "EPHEMERIS_TYPE": 0, "CLASSIFICATION_TYPE": "U", "NORAD_CAT_ID": 43262, "ELEMENT_SET_NO": 999, "REV_AT_EPOCH": 41511, "BSTAR": 0.00034756002, "MEAN_MOTION_DOT": 2.367e-05, "MEAN_MOTION_DDOT": 0}, "tle": {"line1": "1 43262U 18031D   25346.33991148  .00002367  00000+0  34756-3 0  9993", "line2": "2 43262  98.0805  44.1749 0001100  58.9336 301.1981 14.76451296415114"}}, "geometry": {"type": "Point", "coordinates": [-122.96292568710146, 56.71985735433592]}}, {"type": "Feature", "properties": {"norad_id": 43437, "name": "SENTINEL-3B", "group": "resource", "lat": -62.970640652264926, "lon": 69.19904785641408, "alt_km": 810.8818357876535, "timestamp": "2025-12-12T16:50:32.805189+00:00", "meta": {"OBJECT_NAME": "SENTINEL-3B", "OBJECT_ID": "2018-039A", "EPOCH": "2025-12-11T10:50:50.552736", "MEAN_MOTION": 14.26742264, "ECCENTRICITY": 0.00015576, "INCLINATION": 98.6268, "RA_OF_ASC_NODE": 50.6556, "ARG_OF_PERICENTER": 104.2946, "MEAN_ANOMALY": 255.8408, "EPHEMERIS_TYPE": 0, "CLASSIFICATION_TYPE": "U", "NORAD_CAT_ID": 43437, "ELEMENT_SET_NO": 999, "REV_AT_EPOCH": 39735, "BSTAR": 0.00012251697, "MEAN_MOTION_DOT": 2.53e-06, "MEAN_MOTION_DDOT": 0}, "tle": {"line1": "1 43437U 18039A   25345.45197399  .00000253  00000+0  12252-3 0  9992", "line2": "2 43437  98.6268  50.6556 0001557 104.2946 255.8408 14.26742264397350"}}, "geometry": {"type": "Point", "coordinates": [69.19904785641408, -62.970640652264926]}}, {"type": "Feature", "properties": {"norad_id": 43461, "name": "GAOFEN-5 01", "group": "resource", "lat": -76.79485600018042, "lon": -11.117921170507405, "alt_km": 698.8245536057839, "timestamp": "2025-12-12T16:50:32.805199+00:00", "meta": {"OBJECT_NAME": "GAOFEN-5 01", "OBJECT_ID": "2018-043A", "EPOCH": "2025-12-12T04:03:09.333792", "MEAN_MOTION": 14.60409081, "ECCENTRICITY": 9.965e-05, "INCLINATION": 98.4325, "RA_OF_ASC_NODE": 309.1261, "ARG_OF_PERICENTER": 342.6516, "MEAN_ANOMALY": 17.4649, "EPHEMERIS_TYPE": 0, "CLASSIFICATION_TYPE": "U", "NORAD_CAT_ID": 43461, "ELEMENT_SET_NO": 999, "REV_AT_EPOCH": 40439, "BSTAR": 0.00017210659, "MEAN_MOTION_DOT": 7.84e-06, "MEAN_MOTION_DDOT": 0}, "tle": {"line1": "1 43461U 18043A   25346.16885803  .00000784  00000+0  17211-3 0  9996", "line2": "2 43461  98.4325 309.1261 0000996 342.6516  17.4649 14.60409081404398"}}, "geometry": {"type": "Point", "coordinates": [-11.117921170507405, -76.79485600018042]}}, {"type": "Feature", "properties": {"norad_id": 43484, "name": "GAOFEN-6", "group": "resource", "lat": -81.48694721925949, "lon": 117.33137204911694, "alt_km": 655.6093984815952, "timestamp": "2025-12-12T16:50:32.805209+00:00", "meta": {"OBJECT_NAME": "GAOFEN-6", "OBJECT_ID": "2018-048A", "EPOCH": "2025-12-12T07:28:34.203936", "MEAN_MOTION": 14.76566118, "ECCENTRICITY": 0.00132427, "INCLINATION": 97.8028, "RA_OF_ASC_NODE": 50.5925, "ARG_OF_PERICENTER": 64.9675, "MEAN_ANOMALY": 295.2909, "EPHEMERIS_TYPE": 0, "CLASSIFICATION_TYPE": "U", "NORAD_CAT_ID": 43484, "ELEMENT_SET_NO": 999, "REV_AT_EPOCH": 40581, "BSTAR": 0.00023171045, "MEAN_MOTION_DOT": 1.569e-05, "MEAN_MOTION_DDOT": 0}, "tle": {"line1": "1 43484U 18048A   25346.31150699  .00001569  00000+0  23171-3 0  9995", "line2": "2 43484  97.8028  50.5925 0013242  64.9675 295.2909 14.76566118405813"}}, "geometry": {"type": "Point", "coordinates": [117.33137204911694, -81.48694721925949]}}, {"type": "Feature", "properties": {"norad_id": 43585, "name": "GAOFEN-11 01", "group": "resource", "lat": 68.95846493608114, "lon": 30.573598727102514, "alt_km": 413.58916404554475, "timestamp": "2025-12-12T16:50:32.805219+00:00", "meta": {"OBJECT_NAME": "GAOFEN-11 01", "OBJECT_ID": "2018-063A", "EPOCH": "2025-12-12T07:14:22.619616", "MEAN_MOTION": 15.49209977, "ECCENTRICITY": 0.00042463, "INCLINATION": 97.1561, "RA_OF_ASC_NODE": 49.2392, "ARG_OF_PERICENTER": 315.2823, "MEAN_ANOMALY": 44.8086, "EPHEMERIS_TYPE": 0, "CLASSIFICATION_TYPE": "U", "NORAD_CAT_ID": 43585, "ELEMENT_SET_NO": 999, "REV_AT_EPOCH": 41135, "BSTAR": 0.00054980553, "MEAN_MOTION_DOT": 0.00029958, "MEAN_MOTION_DDOT": 0}, "tle": {"line1": "1 43585U 18063A   25346.30165069  .00029958  00000+0  54981-3 0  9995", "line2": "2 43585  97.1561  49.2392 0004246 315.2823  44.8086 15.49209977411352"}}, "geometry": {"type": "Point", "coordinates": [30.573598727102514, 68.95846493608114]}}, {"type": "Feature", "properties": {"norad_id": 43613, "name": "ICESAT-2", "group": "resource", "lat": 10.497788012289096, "lon": 61.0989475767714, "alt_km": 480.5762165890319, "timestamp": "2025-12-12T16:50:32.805229+00:00", "meta": {"OBJECT_NAME": "ICESAT-2", "OBJECT_ID": "2018-070A", "EPOCH": "2025-12-12T05:06:14.846112", "MEAN_MOTION": 15.28375704, "ECCENTRICITY": 0.00027398, "INCLINATION": 92.0043, "RA_OF_ASC_NODE": 240.5952, "ARG_OF_PERICENTER": 151.1357, "MEAN_ANOMALY": 209.0044, "EPHEMERIS_TYPE": 0, "CLASSIFICATION_TYPE": "U", "NORAD_CAT_ID": 43613, "ELEMENT_SET_NO": 999, "REV_AT_EPOCH": 40390, "BSTAR": 0.0006894064, "MEAN_MOTION_DOT": 0.00019062, "MEAN_MOTION_DDOT": 0}, "tle": {"line1": "1 43613U 18070A   25346.21267183  .00019062  00000+0  68941-3 0  9991", "line2": "2 43613  92.0043 240.5952 0002739 151.1357 209.0044 15.28375704403905"}}, "geometry": {"type": "Point", "coordinates": [61.0989475767714, 10.497788012289096]}}, {"type": "Feature", "properties": {"norad_id": 43719, "name": "HYSIS", "group": "resource", "lat": -50.879902279505046, "lon": 59.64897756488379, "alt_km": 640.8350455589816, "timestamp": "2025-12-12T16:50:32.805240+00:00", "meta": {"OBJECT_NAME": "HYSIS", "OBJECT_ID": "2018-096A", "EPOCH": "2025-12-12T07:19:50.757312", "MEAN_MOTION": 14.78645012, "ECCENTRICITY": 0.00013436, "INCLINATION": 98.0093, "RA_OF_ASC_NODE": 49.2847, "ARG_OF_PERICENTER": 58.454, "MEAN_ANOMALY": 301.6802, "EPHEMERIS_TYPE": 0, "CLASSIFICATION_TYPE": "U", "NORAD_CAT_ID": 43719, "ELEMENT_SET_NO": 999, "REV_AT_EPOCH": 37980, "BSTAR": 0.00034670038, "MEAN_MOTION_DOT": 2.488e-05, "MEAN_MOTION_DDOT": 0}, "tle": {"line1": "1 43719U 18096A   25346.30544858  .00002488  00000+0  34670-3 0  9999", "line2": "2 43719  98.0093  49.2847 0001343  58.4540 301.6802 14.78645012379801"}}, "geometry": {"type": "Point", "coordinates": [59.64897756488379, -50.879902279505046]}}, {"type": "Feature", "properties": {"norad_id": 43783, "name": "KAZSTSAT", "group": "resource", "lat": -1.9406629999699754, "lon": -158.36557473536334, "alt_km": 575.737639436863, "timestamp": "2025-12-12T16:50:32.805250+00:00", "meta": {"OBJECT_NAME": "KAZSTSAT", "OBJECT_ID": "2018-099AB", "EPOCH": "2025-12-12T01:37:06.339936", "MEAN_MOTION": 14.99350068, "ECCENTRICITY": 0.00059257, "INCLINATION": 97.4559, "RA_OF_ASC_NODE": 21.2815, "ARG_OF_PERICENTER": 333.101, "MEAN_ANOMALY": 26.9906, "EPHEMERIS_TYPE": 0, "CLASSIFICATION_TYPE": "U", "NORAD_CAT_ID": 43783, "ELEMENT_SET_NO": 999, "REV_AT_EPOCH": 38326, "BSTAR": 0.00018865051, "MEAN_MOTION_DOT": 2.251e-05, "MEAN_MOTION_DDOT": 0}, "tle": {"line1": "1 43783U 18099AB  25346.06743449  .00002251  00000+0  18865-3 0  9999", "line2": "2 43783  97.4559  21.2815 0005925 333.1010  26.9906 14.99350068383266"}}, "geometry": {"type": "Point", "coordinates": [-158.36557473536334, -1.9406629999699754]}}, {"type": "Feature", "properties": {"norad_id": 43831, "name": "SAUDISAT 5A", "group": "resource", "lat": -50.55356476282951, "lon": -142.11442276045122, "alt_km": 503.0835108441688, "timestamp": "2025-12-12T16:50:32.805260+00:00", "meta": {"OBJECT_NAME": "SAUDISAT 5A", "OBJECT_ID": "2018-102A", "EPOCH": "2025-12-12T07:57:46.813248", "MEAN_MOTION": 15.25649776, "ECCENTRICITY": 0.0011751, "INCLINATION": 97.3353, "RA_OF_ASC_NODE": 46.5305, "ARG_OF_PERICENTER": 77.5705, "MEAN_ANOMALY": 282.6847, "EPHEMERIS_TYPE": 0, "CLASSIFICATION_TYPE": "U", "NORAD_CAT_ID": 43831, "ELEMENT_SET_NO": 999, "REV_AT_EPOCH": 38716, "BSTAR": 0.00038967361, "MEAN_MOTION_DOT": 9.866e-05, "MEAN_MOTION_DDOT": 0}, "tle": {"line1": "1 43831U 18102A   25346.33179182  .00009866  00000+0  38967-3 0  9999", "line2": "2 43831  97.3353  46.5305 0011751  77.5705 282.6847 15.25649776387164"}}, "geometry": {"type": "Point", "coordinates": [-142.11442276045122, -50.55356476282951]}}, {"type": "Feature", "properties": {"norad_id": 43833, "name": "SAUDISAT 5B", "group": "resource", "lat": -75.01574226891528, "lon": 78.4427467099407, "alt_km": 502.8848422058891, "timestamp": "2025-12-12T16:50:32.805270+00:00", "meta": {"OBJECT_NAME": "SAUDISAT 5B", "OBJECT_ID": "2018-102C", "EPOCH": "2025-12-12T07:44:12.959808", "MEAN_MOTION": 15.26002585, "ECCENTRICITY": 0.00124723, "INCLINATION": 97.3448, "RA_OF_ASC_NODE": 49.2591, "ARG_OF_PERICENTER": 79.9125, "MEAN_ANOMALY": 280.352, "EPHEMERIS_TYPE": 0, "CLASSIFICATION_TYPE": "U", "NORAD_CAT_ID": 43833, "ELEMENT_SET_NO": 999, "REV_AT_EPOCH": 38727, "BSTAR": 0.00038647746, "MEAN_MOTION_DOT": 9.892e-05, "MEAN_MOTION_DDOT": 0}, "tle": {"line1": "1 43833U 18102C   25346.32237222  .00009892  00000+0  38648-3 0  9995", "line2": "2 43833  97.3448  49.2591 0012472  79.9125 280.3520 15.26002585387278"}}, "geometry": {"type": "Point", "coordinates": [78.4427467099407, -75.01574226891528]}}]}